STARLINK-36176          
1 67026U 25293Z   25356.25002315 -.01530449  00000+0 -65475-2 0  9997
2 67026  69.9924 296.1193 0003779 263.2395 289.7709 15.87898270  1759
STARLINK-36171          
1 67027U 25293AA  25356.25002315 -.01529049  00000+0 -65363-2 0  9998
2 67027  69.9922 296.1221 0004010 270.3922 280.3576 15.87906937  1753
STARLINK-36132          
1 67028U 25293AB  25356.25002315 -.01574523  00000+0 -66107-2 0  9993
2 67028  69.9926 296.1131 0004069 271.7510 286.5716 15.87866829  1759
STARLINK-36190          
1 67029U 25293AC  25356.25002315 -.01576054  00000+0 -66081-2 0  9996
2 67029  69.9927 296.1167 0004104 272.0531 283.3388 15.87896235  1751
STARLINK-36138          
1 67030U 25294A   25356.25002315 -.01881637  00000+0 -94044-2 0  9995
2 67030  42.9998 123.9669 0001478 268.3704 230.3268 15.83752827  1648
STARLINK-36150          
1 67031U 25294B   25356.25002315 -.01889251  00000+0 -94438-2 0  9993
2 67031  42.9999 123.9622 0001393 282.8840 217.5669 15.83763130  1839
STARLINK-36131          
1 67032U 25294C   25356.25002315 -.01891510  00000+0 -94614-2 0  9991
2 67032  43.0000 123.9515 0001432 271.8000 232.8930 15.83752553  1643
STARLINK-36137          
1 67033U 25294D   25356.25002315 -.01885416  00000+0 -94259-2 0  9995
2 67033  42.9998 123.9571 0001335 277.7039 224.8503 15.83754863  1642
STARLINK-36140          
1 67034U 25294E   25356.25002315 -.01897177  00000+0 -94966-2 0  9998
2 67034  42.9998 123.9460 0001637 267.0063 239.9795 15.83744099  1644
STARLINK-36085          
1 67035U 25294F   25356.25002315 -.01900008  00000+0 -95277-2 0  9993
2 67035  43.0000 123.9340 0001332 271.1495 240.4883 15.83715650  1641
STARLINK-36125          
1 67036U 25294G   25356.25002315 -.01886021  00000+0 -94442-2 0  9995
2 67036  42.9998 123.9401 0001399 274.7408 234.5695 15.83721542  1833
STARLINK-35732          
1 67037U 25294H   25356.25002315 -.01896275  00000+0 -95150-2 0  9995
2 67037  42.9997 123.9280 0001361 268.8846 245.2196 15.83696058  1756
