CCSDS_OMM_VERS = 2.0
CREATION_DATE  = 
ORIGINATOR     = 

OBJECT_NAME    = STARLINK-36176
OBJECT_ID      = 2025-293Z
CENTER_NAME    = EARTH
REF_FRAME      = TEME
TIME_SYSTEM    = UTC
MEAN_ELEMENT_THEORY = SGP/SGP4

EPOCH          = 2025-12-22T06:00:02.000160
MEAN_MOTION    = 15.87898270
ECCENTRICITY   = .00037795
INCLINATION    = 69.9924
RA_OF_ASC_NODE = 296.1193
ARG_OF_PERICENTER = 263.2395
MEAN_ANOMALY   = 289.7709

EPHEMERIS_TYPE = 0
CLASSIFICATION_TYPE = U
NORAD_CAT_ID   = 67026
ELEMENT_SET_NO = 999
REV_AT_EPOCH   = 175
BSTAR          = -.65475025E-2
MEAN_MOTION_DOT = -.1530449E-1
MEAN_MOTION_DDOT = 0

CCSDS_OMM_VERS = 2.0
CREATION_DATE  = 
ORIGINATOR     = 

OBJECT_NAME    = STARLINK-36171
OBJECT_ID      = 2025-293AA
CENTER_NAME    = EARTH
REF_FRAME      = TEME
TIME_SYSTEM    = UTC
MEAN_ELEMENT_THEORY = SGP/SGP4

EPOCH          = 2025-12-22T06:00:02.000160
MEAN_MOTION    = 15.87906937
ECCENTRICITY   = .00040101
INCLINATION    = 69.9922
RA_OF_ASC_NODE = 296.1221
ARG_OF_PERICENTER = 270.3922
MEAN_ANOMALY   = 280.3576

EPHEMERIS_TYPE = 0
CLASSIFICATION_TYPE = U
NORAD_CAT_ID   = 67027
ELEMENT_SET_NO = 999
REV_AT_EPOCH   = 175
BSTAR          = -.65362665E-2
MEAN_MOTION_DOT = -.1529049E-1
MEAN_MOTION_DDOT = 0

CCSDS_OMM_VERS = 2.0
CREATION_DATE  = 
ORIGINATOR     = 

OBJECT_NAME    = STARLINK-36132
OBJECT_ID      = 2025-293AB
CENTER_NAME    = EARTH
REF_FRAME      = TEME
TIME_SYSTEM    = UTC
MEAN_ELEMENT_THEORY = SGP/SGP4

EPOCH          = 2025-12-22T06:00:02.000160
MEAN_MOTION    = 15.87866829
ECCENTRICITY   = .00040691
INCLINATION    = 69.9926
RA_OF_ASC_NODE = 296.1131
ARG_OF_PERICENTER = 271.7510
MEAN_ANOMALY   = 286.5716

EPHEMERIS_TYPE = 0
CLASSIFICATION_TYPE = U
NORAD_CAT_ID   = 67028
ELEMENT_SET_NO = 999
REV_AT_EPOCH   = 175
BSTAR          = -.66107461E-2
MEAN_MOTION_DOT = -.1574523E-1
MEAN_MOTION_DDOT = 0

CCSDS_OMM_VERS = 2.0
CREATION_DATE  = 
ORIGINATOR     = 

OBJECT_NAME    = STARLINK-36190
OBJECT_ID      = 2025-293AC
CENTER_NAME    = EARTH
REF_FRAME      = TEME
TIME_SYSTEM    = UTC
MEAN_ELEMENT_THEORY = SGP/SGP4

EPOCH          = 2025-12-22T06:00:02.000160
MEAN_MOTION    = 15.87896235
ECCENTRICITY   = .00041041
INCLINATION    = 69.9927
RA_OF_ASC_NODE = 296.1167
ARG_OF_PERICENTER = 272.0531
MEAN_ANOMALY   = 283.3388

EPHEMERIS_TYPE = 0
CLASSIFICATION_TYPE = U
NORAD_CAT_ID   = 67029
ELEMENT_SET_NO = 999
REV_AT_EPOCH   = 175
BSTAR          = -.66081336E-2
MEAN_MOTION_DOT = -.1576054E-1
MEAN_MOTION_DDOT = 0

CCSDS_OMM_VERS = 2.0
CREATION_DATE  = 
ORIGINATOR     = 

OBJECT_NAME    = STARLINK-36138
OBJECT_ID      = 2025-294A
CENTER_NAME    = EARTH
REF_FRAME      = TEME
TIME_SYSTEM    = UTC
MEAN_ELEMENT_THEORY = SGP/SGP4

EPOCH          = 2025-12-22T06:00:02.000160
MEAN_MOTION    = 15.83752827
ECCENTRICITY   = .00014784
INCLINATION    = 42.9998
RA_OF_ASC_NODE = 123.9669
ARG_OF_PERICENTER = 268.3704
MEAN_ANOMALY   = 230.3268

EPHEMERIS_TYPE = 0
CLASSIFICATION_TYPE = U
NORAD_CAT_ID   = 67030
ELEMENT_SET_NO = 999
REV_AT_EPOCH   = 164
BSTAR          = -.9404361E-2
MEAN_MOTION_DOT = -.1881637E-1
MEAN_MOTION_DDOT = 0

CCSDS_OMM_VERS = 2.0
CREATION_DATE  = 
ORIGINATOR     = 

OBJECT_NAME    = STARLINK-36150
OBJECT_ID      = 2025-294B
CENTER_NAME    = EARTH
REF_FRAME      = TEME
TIME_SYSTEM    = UTC
MEAN_ELEMENT_THEORY = SGP/SGP4

EPOCH          = 2025-12-22T06:00:02.000160
MEAN_MOTION    = 15.83763130
ECCENTRICITY   = .00013937
INCLINATION    = 42.9999
RA_OF_ASC_NODE = 123.9622
ARG_OF_PERICENTER = 282.8840
MEAN_ANOMALY   = 217.5669

EPHEMERIS_TYPE = 0
CLASSIFICATION_TYPE = U
NORAD_CAT_ID   = 67031
ELEMENT_SET_NO = 999
REV_AT_EPOCH   = 183
BSTAR          = -.94438026E-2
MEAN_MOTION_DOT = -.1889251E-1
MEAN_MOTION_DDOT = 0

CCSDS_OMM_VERS = 2.0
CREATION_DATE  = 
ORIGINATOR     = 

OBJECT_NAME    = STARLINK-36131
OBJECT_ID      = 2025-294C
CENTER_NAME    = EARTH
REF_FRAME      = TEME
TIME_SYSTEM    = UTC
MEAN_ELEMENT_THEORY = SGP/SGP4

EPOCH          = 2025-12-22T06:00:02.000160
MEAN_MOTION    = 15.83752553
ECCENTRICITY   = .00014325
INCLINATION    = 43.0000
RA_OF_ASC_NODE = 123.9515
ARG_OF_PERICENTER = 271.8000
MEAN_ANOMALY   = 232.8930

EPHEMERIS_TYPE = 0
CLASSIFICATION_TYPE = U
NORAD_CAT_ID   = 67032
ELEMENT_SET_NO = 999
REV_AT_EPOCH   = 164
BSTAR          = -.94613596E-2
MEAN_MOTION_DOT = -.189151E-1
MEAN_MOTION_DDOT = 0

CCSDS_OMM_VERS = 2.0
CREATION_DATE  = 
ORIGINATOR     = 

OBJECT_NAME    = STARLINK-36137
OBJECT_ID      = 2025-294D
CENTER_NAME    = EARTH
REF_FRAME      = TEME
TIME_SYSTEM    = UTC
MEAN_ELEMENT_THEORY = SGP/SGP4

EPOCH          = 2025-12-22T06:00:02.000160
MEAN_MOTION    = 15.83754863
ECCENTRICITY   = .00013353
INCLINATION    = 42.9998
RA_OF_ASC_NODE = 123.9571
ARG_OF_PERICENTER = 277.7039
MEAN_ANOMALY   = 224.8503

EPHEMERIS_TYPE = 0
CLASSIFICATION_TYPE = U
NORAD_CAT_ID   = 67033
ELEMENT_SET_NO = 999
REV_AT_EPOCH   = 164
BSTAR          = -.94259055E-2
MEAN_MOTION_DOT = -.1885416E-1
MEAN_MOTION_DDOT = 0

CCSDS_OMM_VERS = 2.0
CREATION_DATE  = 
ORIGINATOR     = 

OBJECT_NAME    = STARLINK-36140
OBJECT_ID      = 2025-294E
CENTER_NAME    = EARTH
REF_FRAME      = TEME
TIME_SYSTEM    = UTC
MEAN_ELEMENT_THEORY = SGP/SGP4

EPOCH          = 2025-12-22T06:00:02.000160
MEAN_MOTION    = 15.83744099
ECCENTRICITY   = .00016372
INCLINATION    = 42.9998
RA_OF_ASC_NODE = 123.9460
ARG_OF_PERICENTER = 267.0063
MEAN_ANOMALY   = 239.9795

EPHEMERIS_TYPE = 0
CLASSIFICATION_TYPE = U
NORAD_CAT_ID   = 67034
ELEMENT_SET_NO = 999
REV_AT_EPOCH   = 164
BSTAR          = -.94965818E-2
MEAN_MOTION_DOT = -.1897177E-1
MEAN_MOTION_DDOT = 0

CCSDS_OMM_VERS = 2.0
CREATION_DATE  = 
ORIGINATOR     = 

OBJECT_NAME    = STARLINK-36085
OBJECT_ID      = 2025-294F
CENTER_NAME    = EARTH
REF_FRAME      = TEME
TIME_SYSTEM    = UTC
MEAN_ELEMENT_THEORY = SGP/SGP4

EPOCH          = 2025-12-22T06:00:02.000160
MEAN_MOTION    = 15.83715650
ECCENTRICITY   = .00013325
INCLINATION    = 43.0000
RA_OF_ASC_NODE = 123.9340
ARG_OF_PERICENTER = 271.1495
MEAN_ANOMALY   = 240.4883

EPHEMERIS_TYPE = 0
CLASSIFICATION_TYPE = U
NORAD_CAT_ID   = 67035
ELEMENT_SET_NO = 999
REV_AT_EPOCH   = 164
BSTAR          = -.95276896E-2
MEAN_MOTION_DOT = -.1900008E-1
MEAN_MOTION_DDOT = 0

CCSDS_OMM_VERS = 2.0
CREATION_DATE  = 
ORIGINATOR     = 

OBJECT_NAME    = STARLINK-36125
OBJECT_ID      = 2025-294G
CENTER_NAME    = EARTH
REF_FRAME      = TEME
TIME_SYSTEM    = UTC
MEAN_ELEMENT_THEORY = SGP/SGP4

EPOCH          = 2025-12-22T06:00:02.000160
MEAN_MOTION    = 15.83721542
ECCENTRICITY   = .0001399
INCLINATION    = 42.9998
RA_OF_ASC_NODE = 123.9401
ARG_OF_PERICENTER = 274.7408
MEAN_ANOMALY   = 234.5695

EPHEMERIS_TYPE = 0
CLASSIFICATION_TYPE = U
NORAD_CAT_ID   = 67036
ELEMENT_SET_NO = 999
REV_AT_EPOCH   = 183
BSTAR          = -.94441811E-2
MEAN_MOTION_DOT = -.1886021E-1
MEAN_MOTION_DDOT = 0

CCSDS_OMM_VERS = 2.0
CREATION_DATE  = 
ORIGINATOR     = 

OBJECT_NAME    = STARLINK-35732
OBJECT_ID      = 2025-294H
CENTER_NAME    = EARTH
REF_FRAME      = TEME
TIME_SYSTEM    = UTC
MEAN_ELEMENT_THEORY = SGP/SGP4

EPOCH          = 2025-12-22T06:00:02.000160
MEAN_MOTION    = 15.83696058
ECCENTRICITY   = .00013611
INCLINATION    = 42.9997
RA_OF_ASC_NODE = 123.9280
ARG_OF_PERICENTER = 268.8846
MEAN_ANOMALY   = 245.2196

EPHEMERIS_TYPE = 0
CLASSIFICATION_TYPE = U
NORAD_CAT_ID   = 67037
ELEMENT_SET_NO = 999
REV_AT_EPOCH   = 175
BSTAR          = -.95150183E-2
MEAN_MOTION_DOT = -.1896275E-1
MEAN_MOTION_DDOT = 0

